[
   {
      "label":"ğŸ‡ºğŸ‡¸ (+1)",
      "dial_code":"+1",
      "flag":"ğŸ‡ºğŸ‡¸"
   },
   {
      "label":"ğŸ‡¬ğŸ‡§ (+44)",
      "dial_code":"+1",
      "flag":"ğŸ‡ºğŸ‡¸"
   },
   {
      "label":"ğŸ‡¨ğŸ‡¦ (+1)",
      "dial_code":"+1",
      "flag":"ğŸ‡ºğŸ‡¸"
   },
   {
      "label":"ğŸ‡¸ğŸ‡¦ (+966)",
      "dial_code":"+1",
      "flag":"ğŸ‡ºğŸ‡¸"
   },
   {
      "label":"ğŸ‡¦ğŸ‡ª (+971)",
      "dial_code":"+1",
      "flag":"ğŸ‡ºğŸ‡¸"
   },
   {
      "label":"ğŸ‡ªğŸ‡¬ (+20)",
      "dial_code":"+1",
      "flag":"ğŸ‡ºğŸ‡¸"
   },
   {
      "label":"ğŸ‡©ğŸ‡ª (+49)",
      "dial_code":"+1",
      "flag":"ğŸ‡ºğŸ‡¸"
   },
   {
      "label":"ğŸ‡«ğŸ‡· (+33)",
      "dial_code":"+1",
      "flag":"ğŸ‡ºğŸ‡¸"
   },
   {
      "label":"ğŸ‡®ğŸ‡³ (+91)",
      "dial_code":"+1",
      "flag":"ğŸ‡ºğŸ‡¸"
   },
   {
      "label":"ğŸ‡¯ğŸ‡µ (+81)",
      "dial_code":"+1",
      "flag":"ğŸ‡ºğŸ‡¸"
   },
   {
      "label":"ğŸ‡¦ğŸ‡º (+61)",
      "dial_code":"+1",
      "flag":"ğŸ‡ºğŸ‡¸"
   },
   {
      "label":"ğŸ‡§ğŸ‡· (+55)",
      "dial_code":"+1",
      "flag":"ğŸ‡ºğŸ‡¸"
   },
   {
      "label":"ğŸ‡¨ğŸ‡³ (+86)",
      "dial_code":"+1",
      "flag":"ğŸ‡ºğŸ‡¸"
   },
   {
      "label":"ğŸ‡¿ğŸ‡¦ (+27)",
      "dial_code":"+1",
      "flag":"ğŸ‡ºğŸ‡¸"
   },
   {
      "label":"ğŸ‡²ğŸ‡½ (+52)",
      "dial_code":"+1",
      "flag":"ğŸ‡ºğŸ‡¸"
   },
   {
      "label":"ğŸ‡·ğŸ‡º (+7)",
      "dial_code":"+1",
      "flag":"ğŸ‡ºğŸ‡¸"
   },
   {
      "label":"ğŸ‡¹ğŸ‡· (+90)",
      "dial_code":"+1",
      "flag":"ğŸ‡ºğŸ‡¸"
   },
   {
      "label":"ğŸ‡°ğŸ‡· (+82)",
      "dial_code":"+1",
      "flag":"ğŸ‡ºğŸ‡¸"
   },
   {
      "label":"ğŸ‡ªğŸ‡¸ (+34)",
      "dial_code":"+1",
      "flag":"ğŸ‡ºğŸ‡¸"
   },
   {
      "label":"ğŸ‡®ğŸ‡¹ (+39)",
      "dial_code":"+1",
      "flag":"ğŸ‡ºğŸ‡¸"
   },
   {
      "label":"ğŸ‡¦ğŸ‡· (+54)",
      "dial_code":"+1",
      "flag":"ğŸ‡ºğŸ‡¸"
   },
   {
      "label":"ğŸ‡®ğŸ‡© (+62)",
      "dial_code":"+1",
      "flag":"ğŸ‡ºğŸ‡¸"
   },
   {
      "label":"ğŸ‡²ğŸ‡¾ (+60)",
      "dial_code":"+1",
      "flag":"ğŸ‡ºğŸ‡¸"
   },
   {
      "label":"ğŸ‡µğŸ‡° (+92)",
      "dial_code":"+1",
      "flag":"ğŸ‡ºğŸ‡¸"
   },
   {
      "label":"ğŸ‡¹ğŸ‡­ (+66)",
      "dial_code":"+1",
      "flag":"ğŸ‡ºğŸ‡¸"
   },
   {
      "label":"ğŸ‡³ğŸ‡¬ (+234)",
      "dial_code":"+1",
      "flag":"ğŸ‡ºğŸ‡¸"
   },
   {
      "label":"ğŸ‡°ğŸ‡ª (+254)",
      "dial_code":"+1",
      "flag":"ğŸ‡ºğŸ‡¸"
   },
   {
      "label":"ğŸ‡»ğŸ‡³ (+84)",
      "dial_code":"+1",
      "flag":"ğŸ‡ºğŸ‡¸"
   },
   {
      "label":"ğŸ‡µğŸ‡­ (+63)",
      "dial_code":"+1",
      "flag":"ğŸ‡ºğŸ‡¸"
   },
   {
      "label":"ğŸ‡¬ğŸ‡· (+30)",
      "dial_code":"+1",
      "flag":"ğŸ‡ºğŸ‡¸"
   },
   {
      "label":"ğŸ‡¸ğŸ‡ª (+46)",
      "dial_code":"+1",
      "flag":"ğŸ‡ºğŸ‡¸"
   },
   {
      "label":"ğŸ‡¨ğŸ‡­ (+41)",
      "dial_code":"+1",
      "flag":"ğŸ‡ºğŸ‡¸"
   },
   {
      "label":"ğŸ‡³ğŸ‡± (+31)",
      "dial_code":"+1",
      "flag":"ğŸ‡ºğŸ‡¸"
   },
   {
      "label":"ğŸ‡§ğŸ‡ª (+32)",
      "dial_code":"+1",
      "flag":"ğŸ‡ºğŸ‡¸"
   },
   {
      "label":"ğŸ‡³ğŸ‡´ (+47)",
      "dial_code":"+1",
      "flag":"ğŸ‡ºğŸ‡¸"
   },
   {
      "label":"ğŸ‡©ğŸ‡° (+45)",
      "dial_code":"+1",
      "flag":"ğŸ‡ºğŸ‡¸"
   },
   {
      "label":"ğŸ‡«ğŸ‡® (+358)",
      "dial_code":"+1",
      "flag":"ğŸ‡ºğŸ‡¸"
   },
   {
      "label":"ğŸ‡µğŸ‡¹ (+351)",
      "dial_code":"+1",
      "flag":"ğŸ‡ºğŸ‡¸"
   },
   {
      "label":"ğŸ‡¦ğŸ‡¹ (+43)",
      "dial_code":"+1",
      "flag":"ğŸ‡ºğŸ‡¸"
   },
   {
      "label":"ğŸ‡³ğŸ‡¿ (+64)",
      "dial_code":"+1",
      "flag":"ğŸ‡ºğŸ‡¸"
   },
   {
      "label":"ğŸ‡®ğŸ‡ª (+353)",
      "dial_code":"+1",
      "flag":"ğŸ‡ºğŸ‡¸"
   },
   {
      "label":"ğŸ‡®ğŸ‡¶ (+964)",
      "dial_code":"+1",
      "flag":"ğŸ‡ºğŸ‡¸"
   },
   {
      "label":"ğŸ‡¯ğŸ‡´ (+962)",
      "dial_code":"+1",
      "flag":"ğŸ‡ºğŸ‡¸"
   },
   {
      "label":"ğŸ‡±ğŸ‡§ (+961)",
      "dial_code":"+1",
      "flag":"ğŸ‡ºğŸ‡¸"
   },
   {
      "label":"ğŸ‡²ğŸ‡¦ (+212)",
      "dial_code":"+1",
      "flag":"ğŸ‡ºğŸ‡¸"
   },
   {
      "label":"ğŸ‡¶ğŸ‡¦ (+974)",
      "dial_code":"+1",
      "flag":"ğŸ‡ºğŸ‡¸"
   },
   {
      "label":"ğŸ‡´ğŸ‡² (+968)",
      "dial_code":"+1",
      "flag":"ğŸ‡ºğŸ‡¸"
   },
   {
      "label":"ğŸ‡°ğŸ‡¼ (+965)",
      "dial_code":"+1",
      "flag":"ğŸ‡ºğŸ‡¸"
   },
   {
      "label":"ğŸ‡§ğŸ‡­ (+973)",
      "dial_code":"+1",
      "flag":"ğŸ‡ºğŸ‡¸"
   },
   {
      "label":"ğŸ‡¸ğŸ‡© (+249)",
      "dial_code":"+1",
      "flag":"ğŸ‡ºğŸ‡¸"
   },
   {
      "label":"ğŸ‡¸ğŸ‡¾ (+963)",
      "dial_code":"+1",
      "flag":"ğŸ‡ºğŸ‡¸"
   },
   {
      "label":"ğŸ‡±ğŸ‡¾ (+218)",
      "dial_code":"+1",
      "flag":"ğŸ‡ºğŸ‡¸"
   },
   {
      "label":"ğŸ‡¹ğŸ‡³ (+216)",
      "dial_code":"+1",
      "flag":"ğŸ‡ºğŸ‡¸"
   },
   {
      "label":"ğŸ‡©ğŸ‡¿ (+213)",
      "dial_code":"+1",
      "flag":"ğŸ‡ºğŸ‡¸"
   },
   {
      "label":"ğŸ‡¸ğŸ‡´ (+252)",
      "dial_code":"+1",
      "flag":"ğŸ‡ºğŸ‡¸"
   },
   {
      "label":"ğŸ‡ªğŸ‡¹ (+251)",
      "dial_code":"+1",
      "flag":"ğŸ‡ºğŸ‡¸"
   },
   {
      "label":"ğŸ‡¾ğŸ‡ª (+967)",
      "dial_code":"+1",
      "flag":"ğŸ‡ºğŸ‡¸"
   },
   {
      "label":"ğŸ‡¦ğŸ‡« (+93)",
      "dial_code":"+1",
      "flag":"ğŸ‡ºğŸ‡¸"
   },
   {
      "label":"ğŸ‡±ğŸ‡° (+94)",
      "dial_code":"+1",
      "flag":"ğŸ‡ºğŸ‡¸"
   },
   {
      "label":"ğŸ‡§ğŸ‡© (+880)",
      "dial_code":"+1",
      "flag":"ğŸ‡ºğŸ‡¸"
   },
   {
      "label":"ğŸ‡³ğŸ‡µ (+977)",
      "dial_code":"+1",
      "flag":"ğŸ‡ºğŸ‡¸"
   },
   {
      "label":"ğŸ‡²ğŸ‡² (+95)",
      "dial_code":"+1",
      "flag":"ğŸ‡ºğŸ‡¸"
   },
   {
      "label":"ğŸ‡°ğŸ‡­ (+855)",
      "dial_code":"+1",
      "flag":"ğŸ‡ºğŸ‡¸"
   },
   {
      "label":"ğŸ‡±ğŸ‡¦ (+856)",
      "dial_code":"+1",
      "flag":"ğŸ‡ºğŸ‡¸"
   },
   {
      "label":"ğŸ‡§ğŸ‡¹ (+975)",
      "dial_code":"+1",
      "flag":"ğŸ‡ºğŸ‡¸"
   },
   {
      "label":"ğŸ‡²ğŸ‡» (+960)",
      "dial_code":"+1",
      "flag":"ğŸ‡ºğŸ‡¸"
   },
   {
      "label":"ğŸ‡°ğŸ‡¿ (+7)",
      "dial_code":"+1",
      "flag":"ğŸ‡ºğŸ‡¸"
   },
   {
      "label":"ğŸ‡ºğŸ‡¿ (+998)",
      "dial_code":"+1",
      "flag":"ğŸ‡ºğŸ‡¸"
   },
   {
      "label":"ğŸ‡¹ğŸ‡¯ (+992)",
      "dial_code":"+1",
      "flag":"ğŸ‡ºğŸ‡¸"
   },
   {
      "label":"ğŸ‡°ğŸ‡¬ (+996)",
      "dial_code":"+1",
      "flag":"ğŸ‡ºğŸ‡¸"
   },
   {
      "label":"ğŸ‡¹ğŸ‡² (+993)",
      "dial_code":"+1",
      "flag":"ğŸ‡ºğŸ‡¸"
   },
   {
      "label":"ğŸ‡¦ğŸ‡² (+374)",
      "dial_code":"+1",
      "flag":"ğŸ‡ºğŸ‡¸"
   },
   {
      "label":"ğŸ‡¦ğŸ‡¿ (+994)",
      "dial_code":"+1",
      "flag":"ğŸ‡ºğŸ‡¸"
   },
   {
      "label":"ğŸ‡¬ğŸ‡ª (+995)",
      "dial_code":"+1",
      "flag":"ğŸ‡ºğŸ‡¸"
   },
   {
      "label":"ğŸ‡§ğŸ‡¾ (+375)",
      "dial_code":"+1",
      "flag":"ğŸ‡ºğŸ‡¸"
   },
   {
      "label":"ğŸ‡ºğŸ‡¦ (+380)",
      "dial_code":"+1",
      "flag":"ğŸ‡ºğŸ‡¸"
   },
   {
      "label":"ğŸ‡²ğŸ‡© (+373)",
      "dial_code":"+1",
      "flag":"ğŸ‡ºğŸ‡¸"
   },
   {
      "label":"ğŸ‡§ğŸ‡¦ (+387)",
      "dial_code":"+1",
      "flag":"ğŸ‡ºğŸ‡¸"
   },
   {
      "label":"ğŸ‡·ğŸ‡¸ (+381)",
      "dial_code":"+1",
      "flag":"ğŸ‡ºğŸ‡¸"
   },
   {
      "label":"ğŸ‡²ğŸ‡ª (+382)",
      "dial_code":"+1",
      "flag":"ğŸ‡ºğŸ‡¸"
   },
   {
      "label":"ğŸ‡²ğŸ‡° (+389)",
      "dial_code":"+1",
      "flag":"ğŸ‡ºğŸ‡¸"
   },
   {
      "label":"ğŸ‡¦ğŸ‡± (+355)",
      "dial_code":"+1",
      "flag":"ğŸ‡ºğŸ‡¸"
   },
   {
      "label":"ğŸ‡½ğŸ‡° (+383)",
      "dial_code":"+1",
      "flag":"ğŸ‡ºğŸ‡¸"
   },
   {
      "label":"ğŸ‡­ğŸ‡· (+385)",
      "dial_code":"+1",
      "flag":"ğŸ‡ºğŸ‡¸"
   },
   {
      "label":"ğŸ‡¸ğŸ‡® (+386)",
      "dial_code":"+1",
      "flag":"ğŸ‡ºğŸ‡¸"
   },
   {
      "label":"ğŸ‡§ğŸ‡¬ (+359)",
      "dial_code":"+1",
      "flag":"ğŸ‡ºğŸ‡¸"
   },
   {
      "label":"ğŸ‡·ğŸ‡´ (+40)",
      "dial_code":"+1",
      "flag":"ğŸ‡ºğŸ‡¸"
   },
   {
      "label":"ğŸ‡­ğŸ‡º (+36)",
      "dial_code":"+1",
      "flag":"ğŸ‡ºğŸ‡¸"
   },
   {
      "label":"ğŸ‡¸ğŸ‡° (+421)",
      "dial_code":"+1",
      "flag":"ğŸ‡ºğŸ‡¸"
   },
   {
      "label":"ğŸ‡¨ğŸ‡¿ (+420)",
      "dial_code":"+1",
      "flag":"ğŸ‡ºğŸ‡¸"
   },
   {
      "label":"ğŸ‡µğŸ‡± (+48)",
      "dial_code":"+1",
      "flag":"ğŸ‡ºğŸ‡¸"
   },
   {
      "label":"ğŸ‡±ğŸ‡¹ (+370)",
      "dial_code":"+1",
      "flag":"ğŸ‡ºğŸ‡¸"
   },
   {
      "label":"ğŸ‡±ğŸ‡» (+371)",
      "dial_code":"+1",
      "flag":"ğŸ‡ºğŸ‡¸"
   },
   {
      "label":"ğŸ‡ªğŸ‡ª (+372)",
      "dial_code":"+1",
      "flag":"ğŸ‡ºğŸ‡¸"
   },
   {
      "label":"ğŸ‡®ğŸ‡¸ (+354)",
      "dial_code":"+1",
      "flag":"ğŸ‡ºğŸ‡¸"
   },
   {
      "label":"ğŸ‡¬ğŸ‡± (+299)",
      "dial_code":"+1",
      "flag":"ğŸ‡ºğŸ‡¸"
   },
   {
      "label":"ğŸ‡¨ğŸ‡º (+53)",
      "dial_code":"+1",
      "flag":"ğŸ‡ºğŸ‡¸"
   },
   {
      "label":"ğŸ‡¯ğŸ‡² (+1-876)",
      "dial_code":"+1",
      "flag":"ğŸ‡ºğŸ‡¸"
   },
   {
      "label":"ğŸ‡­ğŸ‡¹ (+509)",
      "dial_code":"+1",
      "flag":"ğŸ‡ºğŸ‡¸"
   },
   {
      "label":"ğŸ‡©ğŸ‡´ (+1-809)",
      "dial_code":"+1",
      "flag":"ğŸ‡ºğŸ‡¸"
   }
]